BSAT-3C-----------------
1 37776U 11041B   19324.96648785 -.00000352  00000-0  00000+0 0  9999
2 37776   0.0101 310.6242 0000142 197.0230   9.9366  1.00272493 30454